[
  {
    "OBJECT_NAME": "STARLINK-31423",
    "OBJECT_ID": "24049M",
    "EPOCH": "2025-11-11T01:58:08.279328",
    "MEAN_MOTION": 15.27593223,
    "ECCENTRICITY": 0.0001409,
    "INCLINATION": 42.9996,
    "RA_OF_ASC_NODE": 93.62,
    "ARG_OF_PERICENTER": 270.7393,
    "MEAN_ANOMALY": 89.3298,
    "EPHEMERIS_TYPE": 0,
    "CLASSIFICATION_TYPE": "U",
    "NORAD_CAT_ID": 59242,
    "ELEMENT_SET_NO": 999,
    "REV_AT_EPOCH": 9426,
    "BSTAR": 0.0,
    "MEAN_MOTION_DOT": -1.109e-05,
    "MEAN_MOTION_DDOT": 0.0,
    "TLE_LINE1": "1 59242U 24049M   25315.08204027 -.00001109  00000+0 -30779-4 0  9992",
    "TLE_LINE2": "2 59242  42.9996  93.6200 0001409 270.7393  89.3298 15.27593223 94267",
    "COMMENT": "Grouped by shell and plane from TLE"
  },
  {
    "OBJECT_NAME": "STARLINK-31433",
    "OBJECT_ID": "24049N",
    "EPOCH": "2025-11-10T15:56:12.062400",
    "MEAN_MOTION": 15.2758741,
    "ECCENTRICITY": 0.00013,
    "INCLINATION": 43.0035,
    "RA_OF_ASC_NODE": 95.6409,
    "ARG_OF_PERICENTER": 263.8346,
    "MEAN_ANOMALY": 96.2358,
    "EPHEMERIS_TYPE": 0,
    "CLASSIFICATION_TYPE": "U",
    "NORAD_CAT_ID": 59243,
    "ELEMENT_SET_NO": 999,
    "REV_AT_EPOCH": 9420,
    "BSTAR": 5.201400000000001e-05,
    "MEAN_MOTION_DOT": 1.17e-05,
    "MEAN_MOTION_DDOT": 0.0,
    "TLE_LINE1": "1 59243U 24049N   25314.66402850  .00001170  00000+0  52014-4 0  9992",
    "TLE_LINE2": "2 59243  43.0035  95.6409 0001300 263.8346  96.2358 15.27587410 94207",
    "COMMENT": "Grouped by shell and plane from TLE"
  },
  {
    "OBJECT_NAME": "STARLINK-31285",
    "OBJECT_ID": "24049P",
    "EPOCH": "2025-11-11T02:33:05.726592",
    "MEAN_MOTION": 15.27598928,
    "ECCENTRICITY": 0.00019,
    "INCLINATION": 43.0037,
    "RA_OF_ASC_NODE": 92.9446,
    "ARG_OF_PERICENTER": 277.6231,
    "MEAN_ANOMALY": 82.4405,
    "EPHEMERIS_TYPE": 0,
    "CLASSIFICATION_TYPE": "U",
    "NORAD_CAT_ID": 59244,
    "ELEMENT_SET_NO": 999,
    "REV_AT_EPOCH": 9426,
    "BSTAR": 0.0,
    "MEAN_MOTION_DOT": -2.455e-05,
    "MEAN_MOTION_DDOT": 0.0,
    "TLE_LINE1": "1 59244U 24049P   25315.10631628 -.00002455  00000+0 -79642-4 0  9995",
    "TLE_LINE2": "2 59244  43.0037  92.9446 0001900 277.6231  82.4405 15.27598928 94265",
    "COMMENT": "Grouped by shell and plane from TLE"
  },
  {
    "OBJECT_NAME": "STARLINK-31284",
    "OBJECT_ID": "24049R",
    "EPOCH": "2025-11-11T02:49:45.178464",
    "MEAN_MOTION": 15.27576098,
    "ECCENTRICITY": 0.0001623,
    "INCLINATION": 43.0043,
    "RA_OF_ASC_NODE": 93.0269,
    "ARG_OF_PERICENTER": 281.0027,
    "MEAN_ANOMALY": 79.0642,
    "EPHEMERIS_TYPE": 0,
    "CLASSIFICATION_TYPE": "U",
    "NORAD_CAT_ID": 59246,
    "ELEMENT_SET_NO": 999,
    "REV_AT_EPOCH": 9426,
    "BSTAR": 1.4292e-05,
    "MEAN_MOTION_DOT": 1.31e-06,
    "MEAN_MOTION_DDOT": 0.0,
    "TLE_LINE1": "1 59246U 24049R   25315.11788401  .00000131  00000+0  14292-4 0  9997",
    "TLE_LINE2": "2 59246  43.0043  93.0269 0001623 281.0027  79.0642 15.27576098 94262",
    "COMMENT": "Grouped by shell and plane from TLE"
  },
  {
    "OBJECT_NAME": "STARLINK-31424",
    "OBJECT_ID": "24049S",
    "EPOCH": "2025-11-10T19:12:36.883296",
    "MEAN_MOTION": 15.27589417,
    "ECCENTRICITY": 9.79e-05,
    "INCLINATION": 43.0022,
    "RA_OF_ASC_NODE": 91.482,
    "ARG_OF_PERICENTER": 264.1118,
    "MEAN_ANOMALY": 95.9622,
    "EPHEMERIS_TYPE": 0,
    "CLASSIFICATION_TYPE": "U",
    "NORAD_CAT_ID": 59247,
    "ELEMENT_SET_NO": 999,
    "REV_AT_EPOCH": 9425,
    "BSTAR": 0.0,
    "MEAN_MOTION_DOT": -1.04e-05,
    "MEAN_MOTION_DDOT": 0.0,
    "TLE_LINE1": "1 59247U 24049S   25314.80042689 -.00001040  00000+0 -28255-4 0  9990",
    "TLE_LINE2": "2 59247  43.0022  91.4820 0000979 264.1118  95.9622 15.27589417 94254",
    "COMMENT": "Grouped by shell and plane from TLE"
  },
  {
    "OBJECT_NAME": "STARLINK-31405",
    "OBJECT_ID": "24049T",
    "EPOCH": "2025-11-11T01:47:02.667552",
    "MEAN_MOTION": 15.27584781,
    "ECCENTRICITY": 0.0001073,
    "INCLINATION": 43.0014,
    "RA_OF_ASC_NODE": 93.5629,
    "ARG_OF_PERICENTER": 268.4853,
    "MEAN_ANOMALY": 91.5876,
    "EPHEMERIS_TYPE": 0,
    "CLASSIFICATION_TYPE": "U",
    "NORAD_CAT_ID": 59248,
    "ELEMENT_SET_NO": 999,
    "REV_AT_EPOCH": 9425,
    "BSTAR": 5.447800000000001e-05,
    "MEAN_MOTION_DOT": 1.238e-05,
    "MEAN_MOTION_DDOT": 0.0,
    "TLE_LINE1": "1 59248U 24049T   25315.07433643  .00001238  00000+0  54478-4 0  9998",
    "TLE_LINE2": "2 59248  43.0014  93.5629 0001073 268.4853  91.5876 15.27584781 94257",
    "COMMENT": "Grouped by shell and plane from TLE"
  },
  {
    "OBJECT_NAME": "STARLINK-31426",
    "OBJECT_ID": "24049U",
    "EPOCH": "2025-11-11T01:52:34.849632",
    "MEAN_MOTION": 15.27602726,
    "ECCENTRICITY": 0.0001432,
    "INCLINATION": 43.0006,
    "RA_OF_ASC_NODE": 93.5853,
    "ARG_OF_PERICENTER": 282.2481,
    "MEAN_ANOMALY": 77.821,
    "EPHEMERIS_TYPE": 0,
    "CLASSIFICATION_TYPE": "U",
    "NORAD_CAT_ID": 59249,
    "ELEMENT_SET_NO": 999,
    "REV_AT_EPOCH": 9425,
    "BSTAR": 0.0,
    "MEAN_MOTION_DOT": -3.051e-05,
    "MEAN_MOTION_DDOT": 0.0,
    "TLE_LINE1": "1 59249U 24049U   25315.07818113 -.00003051  00000+0 -10133-3 0  9994",
    "TLE_LINE2": "2 59249  43.0006  93.5853 0001432 282.2481  77.8210 15.27602726 94257",
    "COMMENT": "Grouped by shell and plane from TLE"
  },
  {
    "OBJECT_NAME": "STARLINK-31425",
    "OBJECT_ID": "24049Y",
    "EPOCH": "2025-11-11T02:44:11.020416",
    "MEAN_MOTION": 15.27596591,
    "ECCENTRICITY": 0.0001827,
    "INCLINATION": 43.0037,
    "RA_OF_ASC_NODE": 92.9972,
    "ARG_OF_PERICENTER": 286.4915,
    "MEAN_ANOMALY": 73.5735,
    "EPHEMERIS_TYPE": 0,
    "CLASSIFICATION_TYPE": "U",
    "NORAD_CAT_ID": 59253,
    "ELEMENT_SET_NO": 999,
    "REV_AT_EPOCH": 9426,
    "BSTAR": 0.00011373,
    "MEAN_MOTION_DOT": 2.87e-05,
    "MEAN_MOTION_DDOT": 0.0,
    "TLE_LINE1": "1 59253U 24049Y   25315.11401644  .00002870  00000+0  11373-3 0  9994",
    "TLE_LINE2": "2 59253  43.0037  92.9972 0001827 286.4915  73.5735 15.27596591 94265",
    "COMMENT": "Grouped by shell and plane from TLE"
  },
  {
    "OBJECT_NAME": "STARLINK-31430",
    "OBJECT_ID": "24062B",
    "EPOCH": "2025-11-10T10:22:36.239232",
    "MEAN_MOTION": 15.30195267,
    "ECCENTRICITY": 9.69e-05,
    "INCLINATION": 53.1593,
    "RA_OF_ASC_NODE": 92.3708,
    "ARG_OF_PERICENTER": 84.7869,
    "MEAN_ANOMALY": 275.3242,
    "EPHEMERIS_TYPE": 0,
    "CLASSIFICATION_TYPE": "U",
    "NORAD_CAT_ID": 59375,
    "ELEMENT_SET_NO": 999,
    "REV_AT_EPOCH": 9137,
    "BSTAR": 0.0,
    "MEAN_MOTION_DOT": -5.95e-06,
    "MEAN_MOTION_DDOT": 0.0,
    "TLE_LINE1": "1 59375U 24062B   25314.43236388 -.00000595  00000+0 -79765-5 0  9994",
    "TLE_LINE2": "2 59375  53.1593  92.3708 0000969  84.7869 275.3242 15.30195267 91376",
    "COMMENT": "Grouped by shell and plane from TLE"
  },
  {
    "OBJECT_NAME": "STARLINK-31798",
    "OBJECT_ID": "24082E",
    "EPOCH": "2025-11-10T18:56:01.563072",
    "MEAN_MOTION": 15.2758738,
    "ECCENTRICITY": 0.000129,
    "INCLINATION": 43.0023,
    "RA_OF_ASC_NODE": 91.6343,
    "ARG_OF_PERICENTER": 270.2678,
    "MEAN_ANOMALY": 89.8026,
    "EPHEMERIS_TYPE": 0,
    "CLASSIFICATION_TYPE": "U",
    "NORAD_CAT_ID": 59635,
    "ELEMENT_SET_NO": 999,
    "REV_AT_EPOCH": 8662,
    "BSTAR": 0.0,
    "MEAN_MOTION_DOT": -1.73e-05,
    "MEAN_MOTION_DDOT": 0.0,
    "TLE_LINE1": "1 59635U 24082E   25314.78890698 -.00001730  00000+0 -53349-4 0  9994",
    "TLE_LINE2": "2 59635  43.0023  91.6343 0001290 270.2678  89.8026 15.27587380 86623",
    "COMMENT": "Grouped by shell and plane from TLE"
  },
  {
    "OBJECT_NAME": "STARLINK-31727",
    "OBJECT_ID": "24082H",
    "EPOCH": "2025-11-10T17:27:24.037920",
    "MEAN_MOTION": 15.27610424,
    "ECCENTRICITY": 0.0001529,
    "INCLINATION": 43.0013,
    "RA_OF_ASC_NODE": 92.0325,
    "ARG_OF_PERICENTER": 276.9576,
    "MEAN_ANOMALY": 83.1102,
    "EPHEMERIS_TYPE": 0,
    "CLASSIFICATION_TYPE": "U",
    "NORAD_CAT_ID": 59638,
    "ELEMENT_SET_NO": 999,
    "REV_AT_EPOCH": 8666,
    "BSTAR": 0.0,
    "MEAN_MOTION_DOT": -4.18e-05,
    "MEAN_MOTION_DDOT": 0.0,
    "TLE_LINE1": "1 59638U 24082H   25314.72736155 -.00004180  00000+0 -14233-3 0  9998",
    "TLE_LINE2": "2 59638  43.0013  92.0325 0001529 276.9576  83.1102 15.27610424 86667",
    "COMMENT": "Grouped by shell and plane from TLE"
  },
  {
    "OBJECT_NAME": "STARLINK-31807",
    "OBJECT_ID": "24082J",
    "EPOCH": "2025-11-10T15:42:07.307136",
    "MEAN_MOTION": 15.27605965,
    "ECCENTRICITY": 0.0001341,
    "INCLINATION": 43.0035,
    "RA_OF_ASC_NODE": 92.3425,
    "ARG_OF_PERICENTER": 256.2745,
    "MEAN_ANOMALY": 103.7957,
    "EPHEMERIS_TYPE": 0,
    "CLASSIFICATION_TYPE": "U",
    "NORAD_CAT_ID": 59639,
    "ELEMENT_SET_NO": 999,
    "REV_AT_EPOCH": 8660,
    "BSTAR": 0.00013826,
    "MEAN_MOTION_DOT": 3.547e-05,
    "MEAN_MOTION_DDOT": 0.0,
    "TLE_LINE1": "1 59639U 24082J   25314.65425124  .00003547  00000+0  13826-3 0  9993",
    "TLE_LINE2": "2 59639  43.0035  92.3425 0001341 256.2745 103.7957 15.27605965 86602",
    "COMMENT": "Grouped by shell and plane from TLE"
  },
  {
    "OBJECT_NAME": "STARLINK-31804",
    "OBJECT_ID": "24082L",
    "EPOCH": "2025-11-10T17:47:33.948096",
    "MEAN_MOTION": 15.27563302,
    "ECCENTRICITY": 0.0001129,
    "INCLINATION": 43.0025,
    "RA_OF_ASC_NODE": 91.2804,
    "ARG_OF_PERICENTER": 272.1749,
    "MEAN_ANOMALY": 87.8973,
    "EPHEMERIS_TYPE": 0,
    "CLASSIFICATION_TYPE": "U",
    "NORAD_CAT_ID": 59641,
    "ELEMENT_SET_NO": 999,
    "REV_AT_EPOCH": 8662,
    "BSTAR": 0.0,
    "MEAN_MOTION_DOT": -2.855e-05,
    "MEAN_MOTION_DDOT": 0.0,
    "TLE_LINE1": "1 59641U 24082L   25314.74136514 -.00002855  00000+0 -94306-4 0  9994",
    "TLE_LINE2": "2 59641  43.0025  91.2804 0001129 272.1749  87.8973 15.27563302 86628",
    "COMMENT": "Grouped by shell and plane from TLE"
  }
]